[{"OBJECT_NAME":"STARLINK-36744","OBJECT_ID":"2026-039B","EPOCH":"2026-03-10T06:00:02.000160","MEAN_MOTION":15.81974793,"ECCENTRICITY":0.00017393,"INCLINATION":42.9992,"RA_OF_ASC_NODE":51.4951,"ARG_OF_PERICENTER":283.3753,"MEAN_ANOMALY":81.2489,"EPHEMERIS_TYPE":0,"CLASSIFICATION_TYPE":"U","NORAD_CAT_ID":67987,"ELEMENT_SET_NO":999,"REV_AT_EPOCH":296,"BSTAR":0.00019654262,"MEAN_MOTION_DOT":0.00040968,"MEAN_MOTION_DDOT":0},{"OBJECT_NAME":"STARLINK-36734","OBJECT_ID":"2026-039C","EPOCH":"2026-03-10T06:00:02.000160","MEAN_MOTION":15.8215532,"ECCENTRICITY":0.00012989,"INCLINATION":42.9989,"RA_OF_ASC_NODE":51.484,"ARG_OF_PERICENTER":272.3439,"MEAN_ANOMALY":96.5086,"EPHEMERIS_TYPE":0,"CLASSIFICATION_TYPE":"U","NORAD_CAT_ID":67988,"ELEMENT_SET_NO":999,"REV_AT_EPOCH":296,"BSTAR":-0.0019482347,"MEAN_MOTION_DOT":-0.00395168,"MEAN_MOTION_DDOT":0},{"OBJECT_NAME":"STARLINK-36957","OBJECT_ID":"2026-039D","EPOCH":"2026-03-10T06:00:02.000160","MEAN_MOTION":15.81948191,"ECCENTRICITY":0.00021397,"INCLINATION":42.999,"RA_OF_ASC_NODE":51.473,"ARG_OF_PERICENTER":275.2218,"MEAN_ANOMALY":97.9397,"EPHEMERIS_TYPE":0,"CLASSIFICATION_TYPE":"U","NORAD_CAT_ID":67989,"ELEMENT_SET_NO":999,"REV_AT_EPOCH":296,"BSTAR":0.00055765887,"MEAN_MOTION_DOT":0.00118133,"MEAN_MOTION_DDOT":0},{"OBJECT_NAME":"STARLINK-36951","OBJECT_ID":"2026-039E","EPOCH":"2026-03-10T06:00:02.000160","MEAN_MOTION":15.81953896,"ECCENTRICITY":0.0001689,"INCLINATION":42.999,"RA_OF_ASC_NODE":51.4625,"ARG_OF_PERICENTER":256.5157,"MEAN_ANOMALY":120.9275,"EPHEMERIS_TYPE":0,"CLASSIFICATION_TYPE":"U","NORAD_CAT_ID":67990,"ELEMENT_SET_NO":999,"REV_AT_EPOCH":296,"BSTAR":0.00042400794,"MEAN_MOTION_DOT":0.00089414,"MEAN_MOTION_DDOT":0},{"OBJECT_NAME":"STARLINK-36941","OBJECT_ID":"2026-039F","EPOCH":"2026-03-10T06:00:02.000160","MEAN_MOTION":15.82350562,"ECCENTRICITY":0.00015603,"INCLINATION":42.9988,"RA_OF_ASC_NODE":51.4508,"ARG_OF_PERICENTER":267.4012,"MEAN_ANOMALY":114.231,"EPHEMERIS_TYPE":0,"CLASSIFICATION_TYPE":"U","NORAD_CAT_ID":67991,"ELEMENT_SET_NO":999,"REV_AT_EPOCH":296,"BSTAR":-0.0049000628,"MEAN_MOTION_DOT":-0.00941281,"MEAN_MOTION_DDOT":0},{"OBJECT_NAME":"STARLINK-36950","OBJECT_ID":"2026-039G","EPOCH":"2026-03-10T06:00:02.000160","MEAN_MOTION":15.82070388,"ECCENTRICITY":0.00012381,"INCLINATION":42.9989,"RA_OF_ASC_NODE":51.4399,"ARG_OF_PERICENTER":263.5578,"MEAN_ANOMALY":122.3716,"EPHEMERIS_TYPE":0,"CLASSIFICATION_TYPE":"U","NORAD_CAT_ID":67992,"ELEMENT_SET_NO":999,"REV_AT_EPOCH":296,"BSTAR":-0.00079410165,"MEAN_MOTION_DOT":-0.00165009,"MEAN_MOTION_DDOT":0},{"OBJECT_NAME":"STARLINK-36975","OBJECT_ID":"2026-039H","EPOCH":"2026-03-10T06:00:02.000160","MEAN_MOTION":15.82246745,"ECCENTRICITY":0.0001935,"INCLINATION":42.9988,"RA_OF_ASC_NODE":51.4296,"ARG_OF_PERICENTER":268.9897,"MEAN_ANOMALY":121.1271,"EPHEMERIS_TYPE":0,"CLASSIFICATION_TYPE":"U","NORAD_CAT_ID":67993,"ELEMENT_SET_NO":999,"REV_AT_EPOCH":296,"BSTAR":-0.0021175466,"MEAN_MOTION_DOT":-0.00429703,"MEAN_MOTION_DDOT":0},{"OBJECT_NAME":"STARLINK-36993","OBJECT_ID":"2026-039J","EPOCH":"2026-03-10T06:00:02.000160","MEAN_MOTION":15.82447978,"ECCENTRICITY":0.00016621,"INCLINATION":42.9988,"RA_OF_ASC_NODE":51.42,"ARG_OF_PERICENTER":264.4756,"MEAN_ANOMALY":129.8024,"EPHEMERIS_TYPE":0,"CLASSIFICATION_TYPE":"U","NORAD_CAT_ID":67994,"ELEMENT_SET_NO":999,"REV_AT_EPOCH":296,"BSTAR":-0.003154541,"MEAN_MOTION_DOT":-0.00631286,"MEAN_MOTION_DDOT":0},{"OBJECT_NAME":"STARLINK-36968","OBJECT_ID":"2026-039K","EPOCH":"2026-03-10T06:00:02.000160","MEAN_MOTION":15.82632665,"ECCENTRICITY":0.00016663,"INCLINATION":42.9986,"RA_OF_ASC_NODE":51.3981,"ARG_OF_PERICENTER":269.9591,"MEAN_ANOMALY":132.7528,"EPHEMERIS_TYPE":0,"CLASSIFICATION_TYPE":"U","NORAD_CAT_ID":67995,"ELEMENT_SET_NO":999,"REV_AT_EPOCH":296,"BSTAR":-0.0045729177,"MEAN_MOTION_DOT":-0.00895218,"MEAN_MOTION_DDOT":0},{"OBJECT_NAME":"STARLINK-36979","OBJECT_ID":"2026-039L","EPOCH":"2026-03-10T06:00:02.000160","MEAN_MOTION":15.82395134,"ECCENTRICITY":0.0001759,"INCLINATION":42.9989,"RA_OF_ASC_NODE":51.4085,"ARG_OF_PERICENTER":253.2152,"MEAN_ANOMALY":145.367,"EPHEMERIS_TYPE":0,"CLASSIFICATION_TYPE":"U","NORAD_CAT_ID":67996,"ELEMENT_SET_NO":999,"REV_AT_EPOCH":296,"BSTAR":-0.0030426861,"MEAN_MOTION_DOT":-0.0060897,"MEAN_MOTION_DDOT":0},{"OBJECT_NAME":"STARLINK-36994","OBJECT_ID":"2026-039M","EPOCH":"2026-03-10T06:00:02.000160","MEAN_MOTION":15.82995978,"ECCENTRICITY":0.00018859,"INCLINATION":42.9986,"RA_OF_ASC_NODE":51.3769,"ARG_OF_PERICENTER":264.6383,"MEAN_ANOMALY":146.3437,"EPHEMERIS_TYPE":0,"CLASSIFICATION_TYPE":"U","NORAD_CAT_ID":67997,"ELEMENT_SET_NO":999,"REV_AT_EPOCH":296,"BSTAR":-0.0062441303,"MEAN_MOTION_DOT":-0.01222566,"MEAN_MOTION_DDOT":0},{"OBJECT_NAME":"STARLINK-36988","OBJECT_ID":"2026-039N","EPOCH":"2026-03-10T06:00:02.000160","MEAN_MOTION":15.82770231,"ECCENTRICITY":0.00017897,"INCLINATION":42.9987,"RA_OF_ASC_NODE":51.3874,"ARG_OF_PERICENTER":259.0156,"MEAN_ANOMALY":147.8715,"EPHEMERIS_TYPE":0,"CLASSIFICATION_TYPE":"U","NORAD_CAT_ID":67998,"ELEMENT_SET_NO":999,"REV_AT_EPOCH":296,"BSTAR":-0.0051761893,"MEAN_MOTION_DOT":-0.01006541,"MEAN_MOTION_DDOT":0},{"OBJECT_NAME":"STARLINK-36926","OBJECT_ID":"2026-039P","EPOCH":"2026-03-10T06:00:02.000160","MEAN_MOTION":15.83202461,"ECCENTRICITY":0.00016899,"INCLINATION":42.9987,"RA_OF_ASC_NODE":51.367,"ARG_OF_PERICENTER":270.0444,"MEAN_ANOMALY":145.0318,"EPHEMERIS_TYPE":0,"CLASSIFICATION_TYPE":"U","NORAD_CAT_ID":67999,"ELEMENT_SET_NO":999,"REV_AT_EPOCH":296,"BSTAR":-0.0072100426,"MEAN_MOTION_DOT":-0.01426969,"MEAN_MOTION_DDOT":0},{"OBJECT_NAME":"STARLINK-36931","OBJECT_ID":"2026-039Q","EPOCH":"2026-03-10T06:00:02.000160","MEAN_MOTION":15.83474184,"ECCENTRICITY":0.00018107,"INCLINATION":42.9986,"RA_OF_ASC_NODE":51.3576,"ARG_OF_PERICENTER":273.9408,"MEAN_ANOMALY":145.1134,"EPHEMERIS_TYPE":0,"CLASSIFICATION_TYPE":"U","NORAD_CAT_ID":68000,"ELEMENT_SET_NO":999,"REV_AT_EPOCH":296,"BSTAR":-0.0080392138,"MEAN_MOTION_DOT":-0.01588896,"MEAN_MOTION_DDOT":0},{"OBJECT_NAME":"STARLINK-36903","OBJECT_ID":"2026-039R","EPOCH":"2026-03-10T06:00:02.000160","MEAN_MOTION":15.83579885,"ECCENTRICITY":0.00015596,"INCLINATION":42.9986,"RA_OF_ASC_NODE":51.3465,"ARG_OF_PERICENTER":266.7787,"MEAN_ANOMALY":156.3678,"EPHEMERIS_TYPE":0,"CLASSIFICATION_TYPE":"U","NORAD_CAT_ID":68001,"ELEMENT_SET_NO":999,"REV_AT_EPOCH":296,"BSTAR":-0.0078855111,"MEAN_MOTION_DOT":-0.01569054,"MEAN_MOTION_DDOT":0},{"OBJECT_NAME":"STARLINK-36898","OBJECT_ID":"2026-039S","EPOCH":"2026-03-10T06:00:02.000160","MEAN_MOTION":15.83858305,"ECCENTRICITY":0.00016378,"INCLINATION":42.9985,"RA_OF_ASC_NODE":51.326,"ARG_OF_PERICENTER":266.5995,"MEAN_ANOMALY":164.6026,"EPHEMERIS_TYPE":0,"CLASSIFICATION_TYPE":"U","NORAD_CAT_ID":68002,"ELEMENT_SET_NO":999,"REV_AT_EPOCH":296,"BSTAR":-0.007814933,"MEAN_MOTION_DOT":-0.01575218,"MEAN_MOTION_DDOT":0}]
