STARLINK-36744          
1 67987U 26039B   26069.25002315  .00040968  00000+0  19654-3 0  9992
2 67987  42.9992  51.4951 0001739 283.3753  81.2489 15.81974793  2963
STARLINK-36734          
1 67988U 26039C   26069.25002315 -.00395168  00000+0 -19482-2 0  9998
2 67988  42.9989  51.4840 0001298 272.3439  96.5086 15.82155320  2966
STARLINK-36957          
1 67989U 26039D   26069.25002315  .00118133  00000+0  55766-3 0  9998
2 67989  42.9990  51.4730 0002139 275.2218  97.9397 15.81948191  2964
STARLINK-36951          
1 67990U 26039E   26069.25002315  .00089414  00000+0  42401-3 0  9991
2 67990  42.9990  51.4625 0001689 256.5157 120.9275 15.81953896  2962
STARLINK-36941          
1 67991U 26039F   26069.25002315 -.00941281  00000+0 -49001-2 0  9995
2 67991  42.9988  51.4508 0001560 267.4012 114.2310 15.82350562  2967
STARLINK-36950          
1 67992U 26039G   26069.25002315 -.00165009  00000+0 -79410-3 0  9990
2 67992  42.9989  51.4399 0001238 263.5578 122.3716 15.82070388  2968
STARLINK-36975          
1 67993U 26039H   26069.25002315 -.00429703  00000+0 -21175-2 0  9999
2 67993  42.9988  51.4296 0001935 268.9897 121.1271 15.82246745  2966
STARLINK-36993          
1 67994U 26039J   26069.25002315 -.00631286  00000+0 -31545-2 0  9993
2 67994  42.9988  51.4200 0001662 264.4756 129.8024 15.82447978  2966
STARLINK-36968          
1 67995U 26039K   26069.25002315 -.00895218  00000+0 -45729-2 0  9990
2 67995  42.9986  51.3981 0001666 269.9591 132.7528 15.82632665  2962
STARLINK-36979          
1 67996U 26039L   26069.25002315 -.00608970  00000+0 -30427-2 0  9997
2 67996  42.9989  51.4085 0001759 253.2152 145.3670 15.82395134  2969
STARLINK-36994          
1 67997U 26039M   26069.25002315 -.01222566  00000+0 -62441-2 0  9993
2 67997  42.9986  51.3769 0001885 264.6383 146.3437 15.82995978  2961
STARLINK-36988          
1 67998U 26039N   26069.25002315 -.01006541  00000+0 -51762-2 0  9991
2 67998  42.9987  51.3874 0001789 259.0156 147.8715 15.82770231  2967
STARLINK-36926          
1 67999U 26039P   26069.25002315 -.01426969  00000+0 -72100-2 0  9991
2 67999  42.9987  51.3670 0001689 270.0444 145.0318 15.83202461  2969
STARLINK-36931          
1 68000U 26039Q   26069.25002315 -.01588896  00000+0 -80392-2 0  9995
2 68000  42.9986  51.3576 0001810 273.9408 145.1134 15.83474184  2965
STARLINK-36903          
1 68001U 26039R   26069.25002315 -.01569054  00000+0 -78855-2 0  9992
2 68001  42.9986  51.3465 0001559 266.7787 156.3678 15.83579885  2964
STARLINK-36898          
1 68002U 26039S   26069.25002315 -.01575218  00000+0 -78149-2 0  9998
2 68002  42.9985  51.3260 0001637 266.5995 164.6026 15.83858305  2969
